satname,norad_id,inclination_deg,eccentricity,mean_motion_rev_per_day,perigee_km,apogee_km,l1,l2
STARLINK-1300,45374,53.0547,0.0001203,15.06391045,546.4058811262203,548.0721265927486,1 45374U 20019Q   25293.63741891 -.00001282  00000+0 -67216-4 0  9995,2 45374  53.0547  75.3362 0001203  91.7048 268.4079 15.06391045308629
STARLINK-1302,45375,53.0543,0.0001171,15.06408524,546.3744779722156,547.9963884860781,1 45375U 20019R   25293.65213596  .00001500  00000+0  11957-3 0  9995,2 45375  53.0543  75.2708 0001171  94.7229 265.3894 15.06408524308629
STARLINK-1304,45376,53.0524,0.0001163,15.06407553,546.3829938327444,547.9938245229177,1 45376U 20019S   25293.13980638  .00003911  00000+0  28125-3 0  9990,2 45376  53.0524  77.5688 0001163  88.2881 271.8241 15.06407553308544
STARLINK-1305,45377,53.0539,0.0001463,15.23651014,493.8336511476282,495.84468397425644,1 45377U 20019T   25293.66671296  .01824054  00000+0  68353-1 0  9991,2 45377  53.0539  74.7042 0001463 110.9652 346.5602 15.23651014  5701
STARLINK-1319,45379,53.0543,0.0001102,15.06403605,546.4373369610184,547.9636813480356,1 45379U 20019V   25292.82650377  .00000613  00000+0  60044-4 0  9995,2 45379  53.0543  78.9765 0001102  94.7943 265.3172 15.06403605308504
STARLINK-1266,45383,53.0544,0.0001122,15.063877,546.4722275853464,548.0262842611764,1 45383U 20019Z   25293.62450544 -.00002455  00000+0 -14604-3 0  9991,2 45383  53.0544  55.3957 0001122  97.4703 262.6414 15.06387700308896
STARLINK-1267,45384,53.0545,0.0001013,15.06412649,546.4712569645226,547.8743247281491,1 45384U 20019AA  25293.60981844 -.00000712  00000+0 -28923-4 0  9996,2 45384  53.0545  56.1182 0001013  68.7217 291.3880 15.06412649308883
STARLINK-1272,45386,53.0535,0.0001609,15.20783681,502.36821947534827,504.582722368491,1 45386U 20019AC  25293.66671296  .01817373  00000+0  74094-1 0  9996,2 45386  53.0535  54.8478 0001609  97.6342 358.0714 15.20783681  5804
STARLINK-1274,45387,53.0352,0.0004363,15.27937253,478.98649162083893,484.9726293315098,1 45387U 20019AD  25293.47313810  .00110659  00000+0  39574-2 0  9998,2 45387  53.0352  43.0573 0004363 196.9390 163.1463 15.27937253309057
STARLINK-1280,45388,53.0554,0.000108,15.23503311,494.54105239893124,496.02571120139964,1 45388U 20019AE  25293.66671296  .01812325  00000+0  68249-1 0  9995,2 45388  53.0554  74.6603 0001080  70.0543 172.1841 15.23503311  5795
STARLINK-1283,45389,53.0538,0.0001102,15.29018621,477.98909676902167,479.5003535012411,1 45389U 20019AF  25293.66671296  .00041655  00000+0  14627-2 0  9997,2 45389  53.0538  53.4200 0001102  43.5185 225.0820 15.29018621  5806
STARLINK-1284,45390,53.0549,0.0001464,15.06382284,546.2519764808048,548.2797344368837,1 45390U 20019AG  25293.62818898 -.00001659  00000+0 -92538-4 0  9997,2 45390  53.0549  55.3771 0001464  76.1204 283.9948 15.06382284308892
STARLINK-1292,45394,53.0489,0.0007933,15.87554323,303.8370112053299,314.4470481137878,1 45394U 20019AL  25293.66671296  .00365251  00000+0  12911-2 0  9998,2 45394  53.0489  11.9492 0007933 331.9169  97.5340 15.87554323  6003
STARLINK-1297,45395,53.0541,0.0001076,15.06389701,546.4979521685455,547.9882939710296,1 45395U 20019AM  25293.59870805 -.00004310  00000+0 -27072-3 0  9991,2 45395  53.0541  55.5098 0001076  95.2928 264.8184 15.06389701308078
STARLINK-1307,45397,53.0581,0.0001654,15.06382834,546.118708402053,548.409631109007,1 45397U 20019AP  25293.59134823 -.00001319  00000+0 -69697-4 0  9992,2 45397  53.0581  55.5442 0001654 111.5038 248.6127 15.06382834308711
STARLINK-1312,45398,53.0467,0.0004707,15.89726323,299.90470853352235,306.1943775451391,1 45398U 20019AQ  25293.66671296  .00476382  00000+0  14935-2 0  9998,2 45398  53.0467  11.4236 0004707 320.7384 300.8688 15.89726323  5945
STARLINK-1255,45399,53.0523,0.0001145,15.25259841,489.2188897024025,490.7916942872689,1 45399U 20019AR  25293.66671296  .00378888  00000+0  14132-1 0  9999,2 45399  53.0523  44.4639 0001145  47.7562 199.6462 15.25259841  5804
STARLINK-1259,45403,53.0426,0.0004293,16.08494552,248.13047369778178,253.82223042185979,1 45403U 20019AV  25293.60489520  .00930924  49313-3  10674-2 0  9993,2 45403  53.0426 350.6439 0004293  22.5924 337.5297 16.08494552309608
STARLINK-1260,45404,53.0555,0.0001644,15.06408208,546.0478785474306,548.3249248819138,1 45404U 20019AW  25293.59224814  .00002021  00000+0  15449-3 0  9995,2 45404  53.0555  45.5398 0001644  88.5176 271.6002 15.06408208308740
STARLINK-1263,45405,53.0558,0.0001174,15.06375752,546.4728309172224,548.0989202084047,1 45405U 20019AX  25293.57751262 -.00006269  00000+0 -40262-3 0  9997,2 45405  53.0558  45.6080 0001174  95.0646 265.0477 15.06375752308746
STARLINK-1265,45406,53.0557,0.0001356,15.06381644,546.3287321126227,548.2069018989941,1 45406U 20019AY  25293.58488002 -.00006435  00000+0 -41370-3 0  9994,2 45406  53.0557  45.5710 0001356 100.9031 259.2111 15.06381644308748
STARLINK-1278,45408,53.0541,0.000123,15.21572883,500.249572091765,501.94186334032383,1 45408U 20019BA  25293.66671296  .01814278  00000+0  72297-1 0  9995,2 45408  53.0541  74.8094 0001230  96.4325  47.7234 15.21572883  5798
STARLINK-1296,45412,53.0549,0.0001493,15.06385671,546.2215135111801,548.2894357040977,1 45412U 20019BE  25293.58857367 -.00002471  00000+0 -14711-3 0  9990,2 45412  53.0549  45.5542 0001493 101.4651 258.6506 15.06385671308740
STARLINK-1298,45413,53.0495,0.0007234,15.49981128,411.86577976409717,421.6966674500127,1 45413U 20019BF  25293.66671296  .00172993  00000+0  29763-2 0  9992,2 45413  53.0495  24.7836 0007234 256.0067 356.9898 15.49981128  5851
STARLINK-1309,45414,53.0564,0.0001147,15.06382776,546.4700039859972,548.0586910551174,1 45414U 20019BG  25293.60332784  .00000372  00000+0  43864-4 0  9994,2 45414  53.0564  45.4906 0001147  89.9794 270.1327 15.06382776308738
STARLINK-1316,45415,53.0551,0.0001401,15.06388355,546.2770020828038,548.2174947492103,1 45415U 20019BH  25293.62913306 -.00002142  00000+0 -12498-3 0  9999,2 45415  53.0551  45.3723 0001401  91.2800 268.8350 15.06388355308771
STARLINK-1318,45416,53.0535,0.0003586,15.59017583,388.07186550926235,392.92633131904404,1 45416U 20019BJ  25293.47424787  .00062307  00000+0  78590-3 0  9995,2 45416  53.0535  17.8984 0003586   1.1770 358.9249 15.59017583309138
STARLINK-1286,45417,53.0538,0.0001357,15.15949437,517.1618359767117,519.0334740620829,1 45417U 20019BK  25293.66671296  .01077387  00000+0  51333-1 0  9995,2 45417  53.0538  74.9778 0001357  82.1606  33.3201 15.15949437  5755
STARLINK-1308,45419,53.0539,0.0001209,15.06385863,546.4176062669903,548.0921660250606,1 45419U 20019BM  25293.66321641 -.00000794  00000+0 -34420-4 0  9993,2 45419  53.0539  75.2197 0001209  87.0470 273.0658 15.06385863308365
STARLINK-1329,45531,53.0559,0.000148,15.06370714,546.2763518936117,548.3262816353745,1 45531U 20025A   25293.43284738 -.00002912  00000+0 -17682-3 0  9999,2 45531  53.0559  16.2531 0001480 117.2384 242.8756 15.06370714303952
STARLINK-1338,45532,53.0564,0.0001486,15.06369573,546.2756932271359,548.333934534221,1 45532U 20025B   25293.64295009  .00001800  00000+0  13979-3 0  9994,2 45532  53.0564  15.3095 0001486 106.5921 253.5231 15.06369573303989
STARLINK-1350,45535,53.074,9.75e-05,15.3189715,469.4846561508939,470.8200725769457,1 45535U 20025E   25293.39532178  .00017920  00000+0  58423-3 0  9993,2 45535  53.0740 329.9827 0000975  64.2097 295.9004 15.31897150304626
STARLINK-1362,45538,53.0562,0.0001492,15.0638147,546.2350798233647,548.3016207798955,1 45538U 20025H   25293.47609866 -.00002101  00000+0 -12227-3 0  9993,2 45538  53.0562  15.7818 0001492 126.2025 233.9102 15.06381470303968
STARLINK-1368,45540,53.0559,0.0001376,15.06372856,546.3418122290323,548.2476910470823,1 45540U 20025K   25293.48077042 -.00004755  00000+0 -30075-3 0  9990,2 45540  53.0559  16.0397 0001376  97.8745 262.2400 15.06372856303959
STARLINK-1371,45542,53.0546,0.0001379,15.06380912,546.3150468932063,548.2250741604985,1 45542U 20025M   25293.45128065 -.00002519  00000+0 -15034-3 0  9995,2 45542  53.0546  16.1715 0001379 101.4060 258.7084 15.06380912303957
STARLINK-1372,45543,53.0576,0.0001533,15.06374519,546.227986728034,548.3513225403458,1 45543U 20025N   25293.48814969 -.00002788  00000+0 -16844-3 0  9992,2 45543  53.0576  16.0080 0001533  90.9715 269.1449 15.06374519303054
STARLINK-1373,45544,53.056,0.000149,15.06377696,546.2480302086824,548.3118044500461,1 45544U 20025P   25293.44023842 -.00002420  00000+0 -14371-3 0  9997,2 45544  53.0560  16.2211 0001490  97.7925 262.3233 15.06377696303950
STARLINK-1294,45551,53.0501,0.0007832,15.57660097,389.12678690695793,399.73533751960986,1 45551U 20025W   25293.27324332  .00085452  00000+0  11274-2 0  9996,2 45551  53.0501 314.2737 0007832  14.4630 345.6604 15.57660097304811
STARLINK-1325,45554,53.0575,0.0001793,15.5607758,397.8069004693225,400.23718970289065,1 45554U 20025Z   25293.66671296  .00076236  00000+0  10700-2 0  9999,2 45554  53.0575 305.2561 0001793  77.6729 167.9456 15.56077580  5872
STARLINK-1327,45555,53.0558,0.0002099,15.06369399,545.8516968349486,548.7589975322953,1 45555U 20025AA  25293.47891566 -.00001360  00000+0 -72481-4 0  9997,2 45555  53.0558 356.0487 0002099 124.0403 236.0786 15.06369399304234
STARLINK-1336,45557,53.0311,0.0002846,16.13269897,236.00533763560998,239.77117921270565,1 45557U 20025AC  25293.50351201  .01291582  11685-2  10903-2 0  9999,2 45557  53.0311 292.6464 0002846  76.8990 283.2363 16.13269897305123
STARLINK-1356,45564,53.0555,0.0001329,15.06366525,546.3937634333079,548.2345483505451,1 45564U 20025AK  25293.54895848 -.00004971  00000+0 -31533-3 0  9995,2 45564  53.0555 355.7309 0001329  81.6637 278.4503 15.06366525304248
STARLINK-1357,45565,53.0639,0.0005556,15.30231297,471.31395331994827,478.9292943027267,1 45565U 20025AL  25293.42645453  .00082770  00000+0  27720-2 0  9991,2 45565  53.0639 343.2520 0005556 287.4694  72.5698 15.30231297304415
